#dP2024  6 21  0  0  0.00000000      96 __u+U IGS20 FIT  IAC
## 2319 432000.00000000   900.00000000 60482 0.0000000000000
+   54   G02G03G04G05G06G07G08G09G10G11G12G13G14G15G16G17G18
+        G19G20G21G22G23G24G25G26G27G28G29G30G31G32R01R02R03
+        R04R05R07R08R09R11R12R13R14R15R16R17R18R19R20R21R22
+        R24R25R26  0  0  0  0  0  0  0  0  0  0  0  0  0  0
+          0  0  0  0  0  0  0  0  0  0  0  0  0  0  0  0  0
++         6  7  7  6  6  7  7  7  8  7  7  7  6  7  7  7  6
++         7  6  6  7  8  5  6  6  7  5  7  7  6  7  6  7  7
++         7  8  7  7  7  6  6  6  5  6  7  5  6  7  7  6  6
++         6  7  6  0  0  0  0  0  0  0  0  0  0  0  0  0  0
++         0  0  0  0  0  0  0  0  0  0  0  0  0  0  0  0  0
%c M  cc GPS ccc cccc cccc cccc cccc ccccc ccccc ccccc ccccc
%c cc cc ccc ccc cccc cccc cccc cccc ccccc ccccc ccccc ccccc
%f  0.0000000  0.000000000  0.00000000000  0.000000000000000
%f  0.0000000  0.000000000  0.00000000000  0.000000000000000
%i    0    0    0    0      0      0      0      0         0
%i    0    0    0    0      0      0      0      0         0
/* INFORMATION & ANALYSIS CENTER (IAC)      ULTRA-RAPID DATA
/* S/V CLOCKS ARE ALIGNED TO GNSS TIME                      
/* G:C1WC2W R:C1PC2P E:C1XC5X C:C2IC6I J:C1CC2S             
/* PCV:IGS20_2317 OL/AL:FES2004  NONE     YN ORB:CoN CLK:CoN
*  2024 06 21  6 30  0.00000000
PG02  -3034.501428 -14545.414413 -21537.256318   -413.759195
PG03 -11722.366652 -22781.662367  -7399.995174    423.411506
PG04  -1548.936738 -22003.468978  14713.931608    387.686442
PG05   -831.206266  18520.117816  18804.897480   -177.065296
PG06 -25994.658234   5176.280761   2530.742345    206.583953
PG07 -21270.067683  -7578.756063  14865.067500    -87.508042
PG08   5261.553647 -25346.844197  -4924.079394    239.718693
PG09 -11064.986192 -12171.867069  20759.522226    242.932882
PG10  18826.444829   4326.089574 -18167.835423    -47.596367
PG11 -18531.613314  12082.165200  14680.516036   -689.867321
PG12   8341.482297  23564.497211  -9328.178452   -515.878192
PG13 -13743.281022  22531.182023   1212.292562    659.386921
PG14 -20072.867471  -7830.255291 -15632.299393    430.496600
PG15  -1790.810152  25944.471401  -5369.147004    172.490916
PG16   5997.967076 -16018.068296  19863.523191   -258.397823
PG17 -16536.249819   2567.135690 -20248.679402    691.306546
PG18  21677.598006   6730.881776  13968.939984   -627.590030
PG19 -18097.326012  10858.326491 -16047.824841    499.435190
PG20  -9141.410935  12426.640162  21687.216228    373.605776
PG21   2433.737775 -15542.374887 -20795.408654    114.067952
PG22 -16821.017175    -78.048166 -20064.511838    -30.010093
PG23  20361.806785  14415.324753  -9382.030491    255.415960
PG24   1214.409123  16095.724582 -21485.343698   -479.058462
PG25  16573.398722  20934.149450   -757.438762    497.624009
PG26  15910.567694  -5332.293497  20502.766920    133.436651
PG27  12691.394607 -22338.265634   5500.389771    -28.927009
PG28  26147.599833  -4660.165438   -175.151818   -298.164678
PG29   7662.399376  15576.682411  20013.866027   -593.253305
PG30 -26234.042270     78.329554   5132.943940   -370.785940
PG31  22390.688848 -10200.071319  10278.759195   -227.272615
PG32  16698.297582  -5242.381402 -19705.148896   -615.523090
PR01  10939.063904   2035.199796 -22951.217460     89.033250
PR02   8584.868747 -15737.450892 -18071.579068    -23.374609
PR03   1345.449014 -25284.079229  -2796.023314    102.479628
PR04  -6030.528801 -20751.514615  13574.373651    242.083289
PR05 -10410.755679  -5162.195781  22717.271479    133.427180
PR07  -1086.213103  25421.116404   2173.859259     85.015354
PR08   6309.759810  20603.903945 -13615.003099     -5.202655
PR09 -14087.451957   4191.315125 -20847.468059    193.393748
PR11  16701.735629  15574.585528 -11329.426363     20.716218
PR12  22677.220821   8490.531949   8065.296393     41.559550
PR13  15956.084725  -2023.642970  19790.228894    -48.552666
PR14  -2538.246176 -13435.092460  21556.493144     26.622569
PR15 -17646.936783 -15572.563083   9873.850718     78.615432
PR16 -22724.053084  -8611.135534  -7804.033685     26.679973
PR17   9409.949216 -15015.528235 -18366.025182     97.733283
PR18  -6708.598218  -8271.857522 -23170.969063    148.064530
PR19 -18625.511111    799.801357 -17412.688548   -281.088026
PR20 -22195.129563  12419.352975   2194.665038   -114.858696
PR21  -9802.872595  14908.610554  18208.410645   -111.061424
PR22   7771.885699   8184.715799  22895.813964     99.965454
PR24  21410.514598 -13617.492547  -2703.925684    -60.703766
PR25  -9546.120075  14785.021564  18455.333637    -72.639622
PR26   5948.263595  21360.406047 -12566.760703     -5.850138
*  2024 06 21  6 45  0.00000000
PG02   -562.082226 -15182.284594 -21281.691030   -413.752650
PG03 -10973.191211 -22140.399545 -10061.745407    423.427394
PG04   -791.967695 -23378.099048  12469.564429    387.693711
PG05  -2455.698911  16943.445532  20100.247439   -177.066670
PG06 -26136.578329   5033.348159   -371.080904    206.564550
PG07 -19612.624591  -8042.212439  16800.498431    -87.499255
PG08   5672.635553 -25630.881713  -2096.820547    239.734731
PG09 -10245.231384 -14362.159152  19755.676205    242.946196
PG10  20038.897696   5916.683132 -16382.491992    -47.604112
PG11 -20092.323515  12099.520530  12433.252506   -689.874387
PG12   7476.706921  22746.525525 -11827.481772   -515.880821
PG13 -13805.586305  22128.170812   4082.387290    659.389152
PG14 -20964.507068  -9260.207143 -13566.954294    430.504755
PG15  -2191.959371  26280.723172  -2602.073465    172.494822
PG16   7478.231037 -14119.784345  20804.383177   -258.387962
PG17 -15639.573080    290.610904 -21073.270322    691.301042
PG18  20017.179115   7151.751494  16063.266559   -627.594226
PG19 -17415.360650   9051.935074 -17875.648064    499.440129
PG20 -11039.673477  10849.615151  21636.769070    373.605085
PG21   4817.605923 -16075.887877 -19882.651570    114.065748
PG22 -18052.404336  -2045.166933 -18853.356637    -30.014566
PG23  20845.795218  15212.147077  -6699.373112    255.424173
PG24  -1071.874680  16677.061339 -20998.200664   -479.060590
PG25  16238.232815  20950.432479  -3563.146783    497.624465
PG26  17489.076977  -3618.712524  19611.000971    133.430950
PG27  12678.959464 -21464.472063   8234.224060    -28.928183
PG28  26023.870824  -4372.543817  -3023.398705   -298.179647
PG29   6658.281009  17565.035064  18675.212056   -593.251551
PG30 -25578.595022   -337.449808   7790.708991   -370.780301
PG31  23460.717153 -10141.716731   7715.463967   -227.272349
PG32  16024.363072  -2977.865691 -20718.226756   -615.521848
PR01  11130.008649   4829.738313 -22434.378890     89.034046
PR02   8541.294757 -13379.947731 -19899.749442    -23.374561
PR03   1206.613909 -24731.911583  -5960.477504    102.480357
PR04  -6215.945663 -22250.464273  10832.892719    242.084710
PR05 -10509.029558  -7910.831422  21863.090512    133.428089
PR07   -935.152334  24958.021568   5347.361059     85.015999
PR08   6494.175485  22120.539534 -10890.647187     -5.203279
PR09 -16332.068872   3133.694377 -19350.515232    193.395535
PR11  15367.220703  14745.384409 -14009.119892     20.714837
PR12  23445.675509   8751.637015   4993.433446     41.559575
PR13  18063.247259  -1023.738937  17973.533695    -48.552929
PR14   -148.106907 -12159.668047  22443.006882     26.622677
PR15 -16474.687669 -14824.197562  12663.022735     78.615069
PR16 -23479.114600  -8836.904722  -4712.877578     26.680518
PR17  11163.924688 -16239.312551 -16220.776071     97.736940
PR18  -4245.166755  -9736.292131 -23180.446467    148.066328
PR19 -16572.004142   -185.699330 -19393.989732   -281.088511
PR20 -22149.072570  12648.864788  -1047.754786   -114.860250
PR21 -11549.249280  16113.311291  16026.068156   -111.063964
PR22   5300.072580   9564.334075  23066.984367     99.961092
PR24  21446.864781 -13820.455365    505.818776    -60.705007
PR25 -11375.285597  15916.605716  16356.222516    -72.668286
PR26   6140.565675  22735.883168  -9747.889292     -5.849421
EOF
